<?xml version="1.0" encoding="UTF-8"?>
<ndm xmlns:xsi="http://www.w3.org/2001/XMLSchema-instance" xsi:noNamespaceSchemaLocation="https://sanaregistry.org/r/ndmxml_unqualified/ndmxml-2.0.0-master-2.0.xsd">
<omm id="CCSDS_OMM_VERS" version="2.0">
<header><CREATION_DATE/><ORIGINATOR/></header><body><segment><metadata><OBJECT_NAME>KUIPER-00232</OBJECT_NAME><OBJECT_ID>2025-301R</OBJECT_ID><CENTER_NAME>EARTH</CENTER_NAME><REF_FRAME>TEME</REF_FRAME><TIME_SYSTEM>UTC</TIME_SYSTEM><MEAN_ELEMENT_THEORY>SGP4</MEAN_ELEMENT_THEORY></metadata><data><meanElements><EPOCH>2026-01-08T10:26:45.883392</EPOCH><MEAN_MOTION>15.37117971</MEAN_MOTION><ECCENTRICITY>.00023498</ECCENTRICITY><INCLINATION>51.8743</INCLINATION><RA_OF_ASC_NODE>356.1692</RA_OF_ASC_NODE><ARG_OF_PERICENTER>85.0215</ARG_OF_PERICENTER><MEAN_ANOMALY>275.1040</MEAN_ANOMALY></meanElements><tleParameters><EPHEMERIS_TYPE>0</EPHEMERIS_TYPE><CLASSIFICATION_TYPE>U</CLASSIFICATION_TYPE><NORAD_CAT_ID>67148</NORAD_CAT_ID><ELEMENT_SET_NO>999</ELEMENT_SET_NO><REV_AT_EPOCH>447</REV_AT_EPOCH><BSTAR>.94062897E-3</BSTAR><MEAN_MOTION_DOT>.34479E-3</MEAN_MOTION_DOT><MEAN_MOTION_DDOT>0</MEAN_MOTION_DDOT></tleParameters></data></segment></body></omm>
<omm id="CCSDS_OMM_VERS" version="2.0">
<header><CREATION_DATE/><ORIGINATOR/></header><body><segment><metadata><OBJECT_NAME>KUIPER-00241</OBJECT_NAME><OBJECT_ID>2025-301S</OBJECT_ID><CENTER_NAME>EARTH</CENTER_NAME><REF_FRAME>TEME</REF_FRAME><TIME_SYSTEM>UTC</TIME_SYSTEM><MEAN_ELEMENT_THEORY>SGP4</MEAN_ELEMENT_THEORY></metadata><data><meanElements><EPOCH>2026-01-08T10:36:29.842848</EPOCH><MEAN_MOTION>15.36731064</MEAN_MOTION><ECCENTRICITY>.00029437</ECCENTRICITY><INCLINATION>51.8742</INCLINATION><RA_OF_ASC_NODE>356.2120</RA_OF_ASC_NODE><ARG_OF_PERICENTER>126.2048</ARG_OF_PERICENTER><MEAN_ANOMALY>233.9211</MEAN_ANOMALY></meanElements><tleParameters><EPHEMERIS_TYPE>0</EPHEMERIS_TYPE><CLASSIFICATION_TYPE>U</CLASSIFICATION_TYPE><NORAD_CAT_ID>67149</NORAD_CAT_ID><ELEMENT_SET_NO>999</ELEMENT_SET_NO><REV_AT_EPOCH>480</REV_AT_EPOCH><BSTAR>.90507734E-3</BSTAR><MEAN_MOTION_DOT>.32739E-3</MEAN_MOTION_DOT><MEAN_MOTION_DDOT>0</MEAN_MOTION_DDOT></tleParameters></data></segment></body></omm>
<omm id="CCSDS_OMM_VERS" version="2.0">
<header><CREATION_DATE/><ORIGINATOR/></header><body><segment><metadata><OBJECT_NAME>KUIPER-00245</OBJECT_NAME><OBJECT_ID>2025-301T</OBJECT_ID><CENTER_NAME>EARTH</CENTER_NAME><REF_FRAME>TEME</REF_FRAME><TIME_SYSTEM>UTC</TIME_SYSTEM><MEAN_ELEMENT_THEORY>SGP4</MEAN_ELEMENT_THEORY></metadata><data><meanElements><EPOCH>2026-01-08T14:00:01.999872</EPOCH><MEAN_MOTION>15.30399099</MEAN_MOTION><ECCENTRICITY>.00074933</ECCENTRICITY><INCLINATION>51.8747</INCLINATION><RA_OF_ASC_NODE>355.7193</RA_OF_ASC_NODE><ARG_OF_PERICENTER>163.5446</ARG_OF_PERICENTER><MEAN_ANOMALY>156.1087</MEAN_ANOMALY></meanElements><tleParameters><EPHEMERIS_TYPE>0</EPHEMERIS_TYPE><CLASSIFICATION_TYPE>U</CLASSIFICATION_TYPE><NORAD_CAT_ID>67150</NORAD_CAT_ID><ELEMENT_SET_NO>999</ELEMENT_SET_NO><REV_AT_EPOCH>397</REV_AT_EPOCH><BSTAR>.25322213E-3</BSTAR><MEAN_MOTION_DOT>.7201E-4</MEAN_MOTION_DOT><MEAN_MOTION_DDOT>0</MEAN_MOTION_DDOT></tleParameters></data></segment></body></omm>
<omm id="CCSDS_OMM_VERS" version="2.0">
<header><CREATION_DATE/><ORIGINATOR/></header><body><segment><metadata><OBJECT_NAME>KUIPER-00246</OBJECT_NAME><OBJECT_ID>2025-301U</OBJECT_ID><CENTER_NAME>EARTH</CENTER_NAME><REF_FRAME>TEME</REF_FRAME><TIME_SYSTEM>UTC</TIME_SYSTEM><MEAN_ELEMENT_THEORY>SGP4</MEAN_ELEMENT_THEORY></metadata><data><meanElements><EPOCH>2026-01-08T13:50:00.838176</EPOCH><MEAN_MOTION>15.36465281</MEAN_MOTION><ECCENTRICITY>.00040246</ECCENTRICITY><INCLINATION>51.8734</INCLINATION><RA_OF_ASC_NODE>355.6136</RA_OF_ASC_NODE><ARG_OF_PERICENTER>152.3380</ARG_OF_PERICENTER><MEAN_ANOMALY>207.7821</MEAN_ANOMALY></meanElements><tleParameters><EPHEMERIS_TYPE>0</EPHEMERIS_TYPE><CLASSIFICATION_TYPE>U</CLASSIFICATION_TYPE><NORAD_CAT_ID>67151</NORAD_CAT_ID><ELEMENT_SET_NO>999</ELEMENT_SET_NO><REV_AT_EPOCH>451</REV_AT_EPOCH><BSTAR>.82550343E-3</BSTAR><MEAN_MOTION_DOT>.2956E-3</MEAN_MOTION_DOT><MEAN_MOTION_DDOT>0</MEAN_MOTION_DDOT></tleParameters></data></segment></body></omm>
<omm id="CCSDS_OMM_VERS" version="2.0">
<header><CREATION_DATE/><ORIGINATOR/></header><body><segment><metadata><OBJECT_NAME>KUIPER-00247</OBJECT_NAME><OBJECT_ID>2025-301V</OBJECT_ID><CENTER_NAME>EARTH</CENTER_NAME><REF_FRAME>TEME</REF_FRAME><TIME_SYSTEM>UTC</TIME_SYSTEM><MEAN_ELEMENT_THEORY>SGP4</MEAN_ELEMENT_THEORY></metadata><data><meanElements><EPOCH>2026-01-08T12:59:14.300736</EPOCH><MEAN_MOTION>15.34443960</MEAN_MOTION><ECCENTRICITY>.00111476</ECCENTRICITY><INCLINATION>51.8648</INCLINATION><RA_OF_ASC_NODE>356.1101</RA_OF_ASC_NODE><ARG_OF_PERICENTER>194.4340</ARG_OF_PERICENTER><MEAN_ANOMALY>165.6328</MEAN_ANOMALY></meanElements><tleParameters><EPHEMERIS_TYPE>0</EPHEMERIS_TYPE><CLASSIFICATION_TYPE>U</CLASSIFICATION_TYPE><NORAD_CAT_ID>67152</NORAD_CAT_ID><ELEMENT_SET_NO>999</ELEMENT_SET_NO><REV_AT_EPOCH>448</REV_AT_EPOCH><BSTAR>.63632537E-3</BSTAR><MEAN_MOTION_DOT>.21269E-3</MEAN_MOTION_DOT><MEAN_MOTION_DDOT>0</MEAN_MOTION_DDOT></tleParameters></data></segment></body></omm>
<omm id="CCSDS_OMM_VERS" version="2.0">
<header><CREATION_DATE/><ORIGINATOR/></header><body><segment><metadata><OBJECT_NAME>KUIPER-00248</OBJECT_NAME><OBJECT_ID>2025-301W</OBJECT_ID><CENTER_NAME>EARTH</CENTER_NAME><REF_FRAME>TEME</REF_FRAME><TIME_SYSTEM>UTC</TIME_SYSTEM><MEAN_ELEMENT_THEORY>SGP4</MEAN_ELEMENT_THEORY></metadata><data><meanElements><EPOCH>2026-01-08T14:17:08.719584</EPOCH><MEAN_MOTION>15.35198112</MEAN_MOTION><ECCENTRICITY>.00084283</ECCENTRICITY><INCLINATION>51.8688</INCLINATION><RA_OF_ASC_NODE>355.7323</RA_OF_ASC_NODE><ARG_OF_PERICENTER>179.5124</ARG_OF_PERICENTER><MEAN_ANOMALY>180.5872</MEAN_ANOMALY></meanElements><tleParameters><EPHEMERIS_TYPE>0</EPHEMERIS_TYPE><CLASSIFICATION_TYPE>U</CLASSIFICATION_TYPE><NORAD_CAT_ID>67153</NORAD_CAT_ID><ELEMENT_SET_NO>999</ELEMENT_SET_NO><REV_AT_EPOCH>466</REV_AT_EPOCH><BSTAR>.59526236E-3</BSTAR><MEAN_MOTION_DOT>.20343E-3</MEAN_MOTION_DOT><MEAN_MOTION_DDOT>0</MEAN_MOTION_DDOT></tleParameters></data></segment></body></omm>
<omm id="CCSDS_OMM_VERS" version="2.0">
<header><CREATION_DATE/><ORIGINATOR/></header><body><segment><metadata><OBJECT_NAME>KUIPER-00249</OBJECT_NAME><OBJECT_ID>2025-301X</OBJECT_ID><CENTER_NAME>EARTH</CENTER_NAME><REF_FRAME>TEME</REF_FRAME><TIME_SYSTEM>UTC</TIME_SYSTEM><MEAN_ELEMENT_THEORY>SGP4</MEAN_ELEMENT_THEORY></metadata><data><meanElements><EPOCH>2026-01-08T11:05:46.240800</EPOCH><MEAN_MOTION>15.35552358</MEAN_MOTION><ECCENTRICITY>.00084471</ECCENTRICITY><INCLINATION>51.8661</INCLINATION><RA_OF_ASC_NODE>356.3401</RA_OF_ASC_NODE><ARG_OF_PERICENTER>177.9516</ARG_OF_PERICENTER><MEAN_ANOMALY>182.1506</MEAN_ANOMALY></meanElements><tleParameters><EPHEMERIS_TYPE>0</EPHEMERIS_TYPE><CLASSIFICATION_TYPE>U</CLASSIFICATION_TYPE><NORAD_CAT_ID>67154</NORAD_CAT_ID><ELEMENT_SET_NO>999</ELEMENT_SET_NO><REV_AT_EPOCH>447</REV_AT_EPOCH><BSTAR>.72819224E-3</BSTAR><MEAN_MOTION_DOT>.25276E-3</MEAN_MOTION_DOT><MEAN_MOTION_DDOT>0</MEAN_MOTION_DDOT></tleParameters></data></segment></body></omm>
<omm id="CCSDS_OMM_VERS" version="2.0">
<header><CREATION_DATE/><ORIGINATOR/></header><body><segment><metadata><OBJECT_NAME>KUIPER-00250</OBJECT_NAME><OBJECT_ID>2025-301Y</OBJECT_ID><CENTER_NAME>EARTH</CENTER_NAME><REF_FRAME>TEME</REF_FRAME><TIME_SYSTEM>UTC</TIME_SYSTEM><MEAN_ELEMENT_THEORY>SGP4</MEAN_ELEMENT_THEORY></metadata><data><meanElements><EPOCH>2026-01-08T14:01:59.977344</EPOCH><MEAN_MOTION>15.36089785</MEAN_MOTION><ECCENTRICITY>.0006644</ECCENTRICITY><INCLINATION>51.8718</INCLINATION><RA_OF_ASC_NODE>355.6680</RA_OF_ASC_NODE><ARG_OF_PERICENTER>165.7956</ARG_OF_PERICENTER><MEAN_ANOMALY>194.3218</MEAN_ANOMALY></meanElements><tleParameters><EPHEMERIS_TYPE>0</EPHEMERIS_TYPE><CLASSIFICATION_TYPE>U</CLASSIFICATION_TYPE><NORAD_CAT_ID>67155</NORAD_CAT_ID><ELEMENT_SET_NO>999</ELEMENT_SET_NO><REV_AT_EPOCH>452</REV_AT_EPOCH><BSTAR>.14363129E-2</BSTAR><MEAN_MOTION_DOT>.51264E-3</MEAN_MOTION_DOT><MEAN_MOTION_DDOT>0</MEAN_MOTION_DDOT></tleParameters></data></segment></body></omm>

</ndm>
